ONEWEB-0647             
1 56079U 23043AK  24043.63230927 -.00000125  00000+0 -36490-3 0  9998
2 56079  87.8946  69.5236 0002213  97.5465 262.5917 13.15547739 43932
ONEWEB-0651             
1 56080U 23043AL  24043.62754914 -.00000069  00000+0 -21654-3 0  9999
2 56080  87.8951  69.4973 0002030 105.3532 254.7823 13.15548507 43930
ONEWEB-0718             
1 56081U 23043AM  24043.62278590 -.00000016  00000+0 -76565-4 0  9995
2 56081  87.8951  69.4854 0001290  80.7777 279.3499 13.15550316 44858
GSLV R/B                
1 56082U 23043AN  24043.46703631  .00080400  00000+0  95175-3 0  9997
2 56082  87.4073  26.8544 0015699 180.7909 179.3336 15.60837935 49973
ONEWEB-0561             
1 56710U 23068A   24043.55860468  .00000071  00000+0  11679-3 0  9997
2 56710  88.2865  82.7743 0002760  89.1480 270.9977 13.34326712 36501
ONEWEB-0668             
1 56711U 23068B   24043.58334491 -.00031256  00000+0 -67665-1 0  9998
2 56711  87.9520  39.0003 0003863  62.6005  81.2872 13.29568043  5450
ONEWEB-0676             
1 56712U 23068C   24043.58334491 -.00039470  00000+0 -87644-1 0  9994
2 56712  87.9313  39.0655 0001737  87.4603 271.5276 13.27938101  5424
ONEWEB-0677             
1 56713U 23068D   24043.58600831  .00000085  00000+0  14284-3 0  9999
2 56713  88.3200  81.0505 0002286 111.0017 249.1369 13.34775745 36697
