<?xml version="1.0" encoding="UTF-8"?>
<ndm xmlns:xsi="http://www.w3.org/2001/XMLSchema-instance" xsi:noNamespaceSchemaLocation="https://sanaregistry.org/r/ndmxml_unqualified/ndmxml-2.0.0-master-2.0.xsd">
<omm id="CCSDS_OMM_VERS" version="2.0">
<header><CREATION_DATE/><ORIGINATOR/></header><body><segment><metadata><OBJECT_NAME>ONEWEB-0647</OBJECT_NAME><OBJECT_ID>2023-043AK</OBJECT_ID><CENTER_NAME>EARTH</CENTER_NAME><REF_FRAME>TEME</REF_FRAME><TIME_SYSTEM>UTC</TIME_SYSTEM><MEAN_ELEMENT_THEORY>SGP4</MEAN_ELEMENT_THEORY></metadata><data><meanElements><EPOCH>2024-02-12T15:10:31.520928</EPOCH><MEAN_MOTION>13.15547739</MEAN_MOTION><ECCENTRICITY>.0002213</ECCENTRICITY><INCLINATION>87.8946</INCLINATION><RA_OF_ASC_NODE>69.5236</RA_OF_ASC_NODE><ARG_OF_PERICENTER>97.5465</ARG_OF_PERICENTER><MEAN_ANOMALY>262.5917</MEAN_ANOMALY></meanElements><tleParameters><EPHEMERIS_TYPE>0</EPHEMERIS_TYPE><CLASSIFICATION_TYPE>U</CLASSIFICATION_TYPE><NORAD_CAT_ID>56079</NORAD_CAT_ID><ELEMENT_SET_NO>999</ELEMENT_SET_NO><REV_AT_EPOCH>4393</REV_AT_EPOCH><BSTAR>-.3649E-3</BSTAR><MEAN_MOTION_DOT>-.125E-5</MEAN_MOTION_DOT><MEAN_MOTION_DDOT>0</MEAN_MOTION_DDOT></tleParameters></data></segment></body></omm>
<omm id="CCSDS_OMM_VERS" version="2.0">
<header><CREATION_DATE/><ORIGINATOR/></header><body><segment><metadata><OBJECT_NAME>ONEWEB-0651</OBJECT_NAME><OBJECT_ID>2023-043AL</OBJECT_ID><CENTER_NAME>EARTH</CENTER_NAME><REF_FRAME>TEME</REF_FRAME><TIME_SYSTEM>UTC</TIME_SYSTEM><MEAN_ELEMENT_THEORY>SGP4</MEAN_ELEMENT_THEORY></metadata><data><meanElements><EPOCH>2024-02-12T15:03:40.245696</EPOCH><MEAN_MOTION>13.15548507</MEAN_MOTION><ECCENTRICITY>.000203</ECCENTRICITY><INCLINATION>87.8951</INCLINATION><RA_OF_ASC_NODE>69.4973</RA_OF_ASC_NODE><ARG_OF_PERICENTER>105.3532</ARG_OF_PERICENTER><MEAN_ANOMALY>254.7823</MEAN_ANOMALY></meanElements><tleParameters><EPHEMERIS_TYPE>0</EPHEMERIS_TYPE><CLASSIFICATION_TYPE>U</CLASSIFICATION_TYPE><NORAD_CAT_ID>56080</NORAD_CAT_ID><ELEMENT_SET_NO>999</ELEMENT_SET_NO><REV_AT_EPOCH>4393</REV_AT_EPOCH><BSTAR>-.21654E-3</BSTAR><MEAN_MOTION_DOT>-.69E-6</MEAN_MOTION_DOT><MEAN_MOTION_DDOT>0</MEAN_MOTION_DDOT></tleParameters></data></segment></body></omm>
<omm id="CCSDS_OMM_VERS" version="2.0">
<header><CREATION_DATE/><ORIGINATOR/></header><body><segment><metadata><OBJECT_NAME>ONEWEB-0718</OBJECT_NAME><OBJECT_ID>2023-043AM</OBJECT_ID><CENTER_NAME>EARTH</CENTER_NAME><REF_FRAME>TEME</REF_FRAME><TIME_SYSTEM>UTC</TIME_SYSTEM><MEAN_ELEMENT_THEORY>SGP4</MEAN_ELEMENT_THEORY></metadata><data><meanElements><EPOCH>2024-02-12T14:56:48.701760</EPOCH><MEAN_MOTION>13.15550316</MEAN_MOTION><ECCENTRICITY>.000129</ECCENTRICITY><INCLINATION>87.8951</INCLINATION><RA_OF_ASC_NODE>69.4854</RA_OF_ASC_NODE><ARG_OF_PERICENTER>80.7777</ARG_OF_PERICENTER><MEAN_ANOMALY>279.3499</MEAN_ANOMALY></meanElements><tleParameters><EPHEMERIS_TYPE>0</EPHEMERIS_TYPE><CLASSIFICATION_TYPE>U</CLASSIFICATION_TYPE><NORAD_CAT_ID>56081</NORAD_CAT_ID><ELEMENT_SET_NO>999</ELEMENT_SET_NO><REV_AT_EPOCH>4485</REV_AT_EPOCH><BSTAR>-.76565E-4</BSTAR><MEAN_MOTION_DOT>-.16E-6</MEAN_MOTION_DOT><MEAN_MOTION_DDOT>0</MEAN_MOTION_DDOT></tleParameters></data></segment></body></omm>
<omm id="CCSDS_OMM_VERS" version="2.0">
<header><CREATION_DATE/><ORIGINATOR/></header><body><segment><metadata><OBJECT_NAME>GSLV R/B</OBJECT_NAME><OBJECT_ID>2023-043AN</OBJECT_ID><CENTER_NAME>EARTH</CENTER_NAME><REF_FRAME>TEME</REF_FRAME><TIME_SYSTEM>UTC</TIME_SYSTEM><MEAN_ELEMENT_THEORY>SGP4</MEAN_ELEMENT_THEORY></metadata><data><meanElements><EPOCH>2024-02-12T11:12:31.937184</EPOCH><MEAN_MOTION>15.60837935</MEAN_MOTION><ECCENTRICITY>.0015699</ECCENTRICITY><INCLINATION>87.4073</INCLINATION><RA_OF_ASC_NODE>26.8544</RA_OF_ASC_NODE><ARG_OF_PERICENTER>180.7909</ARG_OF_PERICENTER><MEAN_ANOMALY>179.3336</MEAN_ANOMALY></meanElements><tleParameters><EPHEMERIS_TYPE>0</EPHEMERIS_TYPE><CLASSIFICATION_TYPE>U</CLASSIFICATION_TYPE><NORAD_CAT_ID>56082</NORAD_CAT_ID><ELEMENT_SET_NO>999</ELEMENT_SET_NO><REV_AT_EPOCH>4997</REV_AT_EPOCH><BSTAR>.95175E-3</BSTAR><MEAN_MOTION_DOT>.804E-3</MEAN_MOTION_DOT><MEAN_MOTION_DDOT>0</MEAN_MOTION_DDOT></tleParameters></data></segment></body></omm>
<omm id="CCSDS_OMM_VERS" version="2.0">
<header><CREATION_DATE/><ORIGINATOR/></header><body><segment><metadata><OBJECT_NAME>ONEWEB-0561</OBJECT_NAME><OBJECT_ID>2023-068A</OBJECT_ID><CENTER_NAME>EARTH</CENTER_NAME><REF_FRAME>TEME</REF_FRAME><TIME_SYSTEM>UTC</TIME_SYSTEM><MEAN_ELEMENT_THEORY>SGP4</MEAN_ELEMENT_THEORY></metadata><data><meanElements><EPOCH>2024-02-12T13:24:23.444352</EPOCH><MEAN_MOTION>13.34326712</MEAN_MOTION><ECCENTRICITY>.000276</ECCENTRICITY><INCLINATION>88.2865</INCLINATION><RA_OF_ASC_NODE>82.7743</RA_OF_ASC_NODE><ARG_OF_PERICENTER>89.1480</ARG_OF_PERICENTER><MEAN_ANOMALY>270.9977</MEAN_ANOMALY></meanElements><tleParameters><EPHEMERIS_TYPE>0</EPHEMERIS_TYPE><CLASSIFICATION_TYPE>U</CLASSIFICATION_TYPE><NORAD_CAT_ID>56710</NORAD_CAT_ID><ELEMENT_SET_NO>999</ELEMENT_SET_NO><REV_AT_EPOCH>3650</REV_AT_EPOCH><BSTAR>.11679E-3</BSTAR><MEAN_MOTION_DOT>.71E-6</MEAN_MOTION_DOT><MEAN_MOTION_DDOT>0</MEAN_MOTION_DDOT></tleParameters></data></segment></body></omm>
<omm id="CCSDS_OMM_VERS" version="2.0">
<header><CREATION_DATE/><ORIGINATOR/></header><body><segment><metadata><OBJECT_NAME>ONEWEB-0668</OBJECT_NAME><OBJECT_ID>2023-068B</OBJECT_ID><CENTER_NAME>EARTH</CENTER_NAME><REF_FRAME>TEME</REF_FRAME><TIME_SYSTEM>UTC</TIME_SYSTEM><MEAN_ELEMENT_THEORY>SGP4</MEAN_ELEMENT_THEORY></metadata><data><meanElements><EPOCH>2024-02-12T14:00:01.000224</EPOCH><MEAN_MOTION>13.29568043</MEAN_MOTION><ECCENTRICITY>.0003863</ECCENTRICITY><INCLINATION>87.9520</INCLINATION><RA_OF_ASC_NODE>39.0003</RA_OF_ASC_NODE><ARG_OF_PERICENTER>62.6005</ARG_OF_PERICENTER><MEAN_ANOMALY>81.2872</MEAN_ANOMALY></meanElements><tleParameters><EPHEMERIS_TYPE>0</EPHEMERIS_TYPE><CLASSIFICATION_TYPE>U</CLASSIFICATION_TYPE><NORAD_CAT_ID>56711</NORAD_CAT_ID><ELEMENT_SET_NO>999</ELEMENT_SET_NO><REV_AT_EPOCH>545</REV_AT_EPOCH><BSTAR>-.67665E-1</BSTAR><MEAN_MOTION_DOT>-.31256E-3</MEAN_MOTION_DOT><MEAN_MOTION_DDOT>0</MEAN_MOTION_DDOT></tleParameters></data></segment></body></omm>
<omm id="CCSDS_OMM_VERS" version="2.0">
<header><CREATION_DATE/><ORIGINATOR/></header><body><segment><metadata><OBJECT_NAME>ONEWEB-0676</OBJECT_NAME><OBJECT_ID>2023-068C</OBJECT_ID><CENTER_NAME>EARTH</CENTER_NAME><REF_FRAME>TEME</REF_FRAME><TIME_SYSTEM>UTC</TIME_SYSTEM><MEAN_ELEMENT_THEORY>SGP4</MEAN_ELEMENT_THEORY></metadata><data><meanElements><EPOCH>2024-02-12T14:00:01.000224</EPOCH><MEAN_MOTION>13.27938101</MEAN_MOTION><ECCENTRICITY>.0001737</ECCENTRICITY><INCLINATION>87.9313</INCLINATION><RA_OF_ASC_NODE>39.0655</RA_OF_ASC_NODE><ARG_OF_PERICENTER>87.4603</ARG_OF_PERICENTER><MEAN_ANOMALY>271.5276</MEAN_ANOMALY></meanElements><tleParameters><EPHEMERIS_TYPE>0</EPHEMERIS_TYPE><CLASSIFICATION_TYPE>U</CLASSIFICATION_TYPE><NORAD_CAT_ID>56712</NORAD_CAT_ID><ELEMENT_SET_NO>999</ELEMENT_SET_NO><REV_AT_EPOCH>542</REV_AT_EPOCH><BSTAR>-.87644E-1</BSTAR><MEAN_MOTION_DOT>-.3947E-3</MEAN_MOTION_DOT><MEAN_MOTION_DDOT>0</MEAN_MOTION_DDOT></tleParameters></data></segment></body></omm>
<omm id="CCSDS_OMM_VERS" version="2.0">
<header><CREATION_DATE/><ORIGINATOR/></header><body><segment><metadata><OBJECT_NAME>ONEWEB-0677</OBJECT_NAME><OBJECT_ID>2023-068D</OBJECT_ID><CENTER_NAME>EARTH</CENTER_NAME><REF_FRAME>TEME</REF_FRAME><TIME_SYSTEM>UTC</TIME_SYSTEM><MEAN_ELEMENT_THEORY>SGP4</MEAN_ELEMENT_THEORY></metadata><data><meanElements><EPOCH>2024-02-12T14:03:51.117984</EPOCH><MEAN_MOTION>13.34775745</MEAN_MOTION><ECCENTRICITY>.0002286</ECCENTRICITY><INCLINATION>88.3200</INCLINATION><RA_OF_ASC_NODE>81.0505</RA_OF_ASC_NODE><ARG_OF_PERICENTER>111.0017</ARG_OF_PERICENTER><MEAN_ANOMALY>249.1369</MEAN_ANOMALY></meanElements><tleParameters><EPHEMERIS_TYPE>0</EPHEMERIS_TYPE><CLASSIFICATION_TYPE>U</CLASSIFICATION_TYPE><NORAD_CAT_ID>56713</NORAD_CAT_ID><ELEMENT_SET_NO>999</ELEMENT_SET_NO><REV_AT_EPOCH>3669</REV_AT_EPOCH><BSTAR>.14284E-3</BSTAR><MEAN_MOTION_DOT>.85E-6</MEAN_MOTION_DOT><MEAN_MOTION_DDOT>0</MEAN_MOTION_DDOT></tleParameters></data></segment></body></omm>

</ndm>
